{
  "type": "FeatureCollection",
  "generator": "overpass-turbo",
  "copyright": "The data included in this document is from www.openstreetmap.org. The data is made available under ODbL.",
  "timestamp": "2026-09-22T00:09:02Z",
  "features": [
    {
      "type": "Feature",
      "properties": {
        "@id": "way/171795606",
        "highway": "tertiary",
        "lanes": "2",
        "name": "Rua Major Avelino Vieira de Andrade Palma",
        "postal_code": "14096-240",
        "surface": "asphalt"
      },
      "geometry": {
        "type": "LineString",
        "coordinates": [
          [
            -47.778014,
            -21.2039736
          ],
          [
            -47.7780401,
            -21.2040329
          ],
          [
            -47.7780862,
            -21.2040963
          ],
          [
            -47.7784115,
            -21.2045182
          ],
          [
            -47.7789671,
            -21.205135
          ],
          [
            -47.779756,
            -21.2057241
          ],
          [
            -47.7800723,
            -21.2059546
          ],
          [
            -47.7803745,
            -21.2061234
          ],
          [
            -47.7813752,
            -21.2065579
          ],
          [
            -47.7824072,
            -21.207
          ],
          [
            -47.7828872,
            -21.2071973
          ],
          [
            -47.7833086,
            -21.2073623
          ],
          [
            -47.7834729,
            -21.2074309
          ],
          [
            -47.7839019,
            -21.2075943
          ],
          [
            -47.7848992,
            -21.2080525
          ],
          [
            -47.7849601,
            -21.2080904
          ],
          [
            -47.7850053,
            -21.2081441
          ],
          [
            -47.7850236,
            -21.2082104
          ]
        ]
      },
      "id": "way/171795606"
    },
    {
      "type": "Feature",
      "properties": {
        "@id": "way/171795608",
        "highway": "residential",
        "name": "Rua João Nantes Júnior",
        "surface": "asphalt"
      },
      "geometry": {
        "type": "LineString",
        "coordinates": [
          [
            -47.7807881,
            -21.2047454
          ],
          [
            -47.7789671,
            -21.205135
          ],
          [
            -47.7775502,
            -21.2055003
          ]
        ]
      },
      "id": "way/171795608"
    },
    {
      "type": "Feature",
      "properties": {
        "@id": "way/171795612",
        "highway": "residential",
        "name": "Rua Maria da Glória Machado Santana"
      },
      "geometry": {
        "type": "LineString",
        "coordinates": [
          [
            -47.780162,
            -21.2040973
          ],
          [
            -47.7784115,
            -21.2045182
          ],
          [
            -47.7771721,
            -21.2048202
          ]
        ]
      },
      "id": "way/171795612"
    },
    {
      "type": "Feature",
      "properties": {
        "@id": "way/171795637",
        "highway": "tertiary",
        "lanes": "2",
        "name": "Rua Pedro Pegoraro",
        "postal_code": "14096-440"
      },
      "geometry": {
        "type": "LineString",
        "coordinates": [
          [
            -47.7793462,
            -21.1987027
          ],
          [
            -47.778655,
            -21.1987581
          ],
          [
            -47.7782687,
            -21.1987995
          ],
          [
            -47.7779558,
            -21.1988245
          ],
          [
            -47.7777981,
            -21.1988537
          ],
          [
            -47.7776469,
            -21.1989219
          ],
          [
            -47.7774966,
            -21.199003
          ],
          [
            -47.7772868,
            -21.1991318
          ],
          [
            -47.776954,
            -21.1993513
          ]
        ]
      },
      "id": "way/171795637"
    },
    {
      "type": "Feature",
      "properties": {
        "@id": "way/171795645",
        "highway": "residential",
        "name": "Rua Francisca M. Farinha",
        "oneway": "yes",
        "postal_code": "14096-460"
      },
      "geometry": {
        "type": "LineString",
        "coordinates": [
          [
            -47.7763566,
            -21.1998606
          ],
          [
            -47.7766741,
            -21.200244
          ],
          [
            -47.7768174,
            -21.2004469
          ],
          [
            -47.7769525,
            -21.20066
          ],
          [
            -47.7770739,
            -21.2008766
          ],
          [
            -47.7771324,
            -21.2010447
          ],
          [
            -47.7771766,
            -21.2012535
          ],
          [
            -47.7772143,
            -21.2015188
          ],
          [
            -47.7772719,
            -21.2020887
          ],
          [
            -47.7773041,
            -21.2023
          ],
          [
            -47.7774085,
            -21.2027728
          ],
          [
            -47.7775441,
            -21.2032621
          ],
          [
            -47.777673,
            -21.2037271
          ]
        ]
      },
      "id": "way/171795645"
    },
    {
      "type": "Feature",
      "properties": {
        "@id": "way/171795650",
        "highway": "residential",
        "name": "Rua Elias Farah Badra"
      },
      "geometry": {
        "type": "LineString",
        "coordinates": [
          [
            -47.7771217,
            -21.1985346
          ],
          [
            -47.7768884,
            -21.1986895
          ],
          [
            -47.7763506,
            -21.1990858
          ],
          [
            -47.7758583,
            -21.199436
          ]
        ]
      },
      "id": "way/171795650"
    },
    {
      "type": "Feature",
      "properties": {
        "@id": "way/171795654",
        "highway": "residential",
        "name": "Rua Agostinho Veiga"
      },
      "geometry": {
        "type": "LineString",
        "coordinates": [
          [
            -47.769289,
            -21.2041748
          ],
          [
            -47.7693832,
            -21.2047049
          ],
          [
            -47.7694341,
            -21.2048561
          ],
          [
            -47.7695556,
            -21.2049242
          ],
          [
            -47.769728,
            -21.2049166
          ],
          [
            -47.7704437,
            -21.2048147
          ],
          [
            -47.7706361,
            -21.2047687
          ],
          [
            -47.771138,
            -21.2046724
          ],
          [
            -47.7722968,
            -21.2043596
          ],
          [
            -47.7750014,
            -21.2035128
          ],
          [
            -47.7766642,
            -21.2029634
          ],
          [
            -47.7774085,
            -21.2027728
          ]
        ]
      },
      "id": "way/171795654"
    },
    {
      "type": "Feature",
      "properties": {
        "@id": "way/171796786",
        "highway": "residential",
        "name": "Rua Jerônimo Panazollo",
        "postal_code": "14096-430"
      },
      "geometry": {
        "type": "LineString",
        "coordinates": [
          [
            -47.7770739,
            -21.2008766
          ],
          [
            -47.7764346,
            -21.2012744
          ],
          [
            -47.774941,
            -21.2021049
          ],
          [
            -47.7732796,
            -21.2025397
          ],
          [
            -47.7730723,
            -21.2025137
          ],
          [
            -47.7726936,
            -21.2023897
          ]
        ]
      },
      "id": "way/171796786"
    },
    {
      "type": "Feature",
      "properties": {
        "@id": "way/171796788",
        "highway": "residential",
        "name": "Rua Olga Benário Prestes",
        "postal_code": "14096-090"
      },
      "geometry": {
        "type": "LineString",
        "coordinates": [
          [
            -47.7819704,
            -21.2038214
          ],
          [
            -47.7821799,
            -21.2036427
          ],
          [
            -47.7832271,
            -21.2033915
          ]
        ]
      },
      "id": "way/171796788"
    },
    {
      "type": "Feature",
      "properties": {
        "@id": "way/171796802",
        "highway": "residential",
        "name": "Rua Adolfo Zeo",
        "oneway": "yes",
        "postal_code": "14096-470"
      },
      "geometry": {
        "type": "LineString",
        "coordinates": [
          [
            -47.778495,
            -21.2035226
          ],
          [
            -47.7784331,
            -21.2032818
          ],
          [
            -47.7783771,
            -21.2030496
          ],
          [
            -47.7783181,
            -21.2028053
          ],
          [
            -47.7782261,
            -21.202412
          ],
          [
            -47.7781086,
            -21.2016913
          ],
          [
            -47.7780467,
            -21.2013116
          ],
          [
            -47.7778435,
            -21.2006477
          ],
          [
            -47.7777321,
            -21.2004257
          ],
          [
            -47.7777043,
            -21.2003703
          ],
          [
            -47.777613,
            -21.2001885
          ],
          [
            -47.776954,
            -21.1993513
          ]
        ]
      },
      "id": "way/171796802"
    },
    {
      "type": "Feature",
      "properties": {
        "@id": "way/171802434",
        "highway": "residential",
        "name": "Rua Reinaldo Dinamarco",
        "postal_code": "14096-509"
      },
      "geometry": {
        "type": "LineString",
        "coordinates": [
          [
            -47.7808591,
            -21.2003846
          ],
          [
            -47.7823281,
            -21.2003551
          ]
        ]
      },
      "id": "way/171802434"
    },
    {
      "type": "Feature",
      "properties": {
        "@id": "way/171802445",
        "highway": "residential",
        "name": "Rua Antônio Chiericato",
        "postal_code": "14096-510"
      },
      "geometry": {
        "type": "LineString",
        "coordinates": [
          [
            -47.7836081,
            -21.1997141
          ],
          [
            -47.7822253,
            -21.1997265
          ],
          [
            -47.7805289,
            -21.1997265
          ]
        ]
      },
      "id": "way/171802445"
    },
    {
      "type": "Feature",
      "properties": {
        "@id": "way/171802454",
        "highway": "residential",
        "name": "Rua Edmo Bernardes de Mello",
        "postal_code": "14096-490"
      },
      "geometry": {
        "type": "LineString",
        "coordinates": [
          [
            -47.7812891,
            -21.201151
          ],
          [
            -47.7825159,
            -21.2008823
          ],
          [
            -47.783805,
            -21.2005726
          ]
        ]
      },
      "id": "way/171802454"
    },
    {
      "type": "Feature",
      "properties": {
        "@id": "way/171802456",
        "highway": "residential",
        "name": "Rua Carlos Lucas Evangelista",
        "postal_code": "14096-480"
      },
      "geometry": {
        "type": "LineString",
        "coordinates": [
          [
            -47.7815925,
            -21.2018316
          ],
          [
            -47.7827176,
            -21.2015425
          ],
          [
            -47.7839895,
            -21.2012283
          ]
        ]
      },
      "id": "way/171802456"
    },
    {
      "type": "Feature",
      "properties": {
        "@id": "way/209109849",
        "highway": "service",
        "oneway": "yes"
      },
      "geometry": {
        "type": "LineString",
        "coordinates": [
          [
            -47.7793692,
            -21.2033125
          ],
          [
            -47.7794031,
            -21.2032381
          ],
          [
            -47.7794667,
            -21.2031651
          ],
          [
            -47.7795628,
            -21.2031102
          ],
          [
            -47.7796495,
            -21.203075
          ],
          [
            -47.7797499,
            -21.2030557
          ],
          [
            -47.7798582,
            -21.2030498
          ],
          [
            -47.7799649,
            -21.2030706
          ],
          [
            -47.7800124,
            -21.2030937
          ],
          [
            -47.7800852,
            -21.2031387
          ]
        ]
      },
      "id": "way/209109849"
    },
    {
      "type": "Feature",
      "properties": {
        "@id": "way/231509515",
        "highway": "residential",
        "name": "Rua Argeu Fuliotto",
        "postal_code": "14096-520"
      },
      "geometry": {
        "type": "LineString",
        "coordinates": [
          [
            -47.7801415,
            -21.1991107
          ],
          [
            -47.7802545,
            -21.1990727
          ],
          [
            -47.7803141,
            -21.1990479
          ],
          [
            -47.7803801,
            -21.1990392
          ],
          [
            -47.7818436,
            -21.1990155
          ],
          [
            -47.7822548,
            -21.19901
          ]
        ]
      },
      "id": "way/231509515"
    },
    {
      "type": "Feature",
      "properties": {
        "@id": "way/233049381",
        "highway": "residential",
        "name": "Rua José Pierri"
      },
      "geometry": {
        "type": "LineString",
        "coordinates": [
          [
            -47.7771346,
            -21.1980488
          ],
          [
            -47.7777981,
            -21.1988537
          ]
        ]
      },
      "id": "way/233049381"
    },
    {
      "type": "Feature",
      "properties": {
        "@id": "way/234934482",
        "highway": "residential"
      },
      "geometry": {
        "type": "LineString",
        "coordinates": [
          [
            -47.7802545,
            -21.1990727
          ],
          [
            -47.7802811,
            -21.1996045
          ]
        ]
      },
      "id": "way/234934482"
    },
    {
      "type": "Feature",
      "properties": {
        "@id": "way/388252096",
        "alt_name": "Avenida Leão XIII - Auxiliar",
        "highway": "tertiary",
        "lanes": "2",
        "name": "Avenida Leão Décimo Terceiro - Auxiliar",
        "oneway": "yes",
        "surface": "asphalt"
      },
      "geometry": {
        "type": "LineString",
        "coordinates": [
          [
            -47.7807362,
            -21.2013859
          ],
          [
            -47.7806413,
            -21.2012291
          ],
          [
            -47.7806035,
            -21.201159
          ],
          [
            -47.7805047,
            -21.2009726
          ],
          [
            -47.7803719,
            -21.200722
          ],
          [
            -47.7798701,
            -21.1997349
          ],
          [
            -47.7797656,
            -21.1995217
          ],
          [
            -47.779703,
            -21.1993997
          ],
          [
            -47.7796714,
            -21.1993294
          ],
          [
            -47.7796385,
            -21.1992655
          ],
          [
            -47.7793462,
            -21.1987027
          ],
          [
            -47.779075,
            -21.1981935
          ],
          [
            -47.7789869,
            -21.1980268
          ],
          [
            -47.778941,
            -21.1979419
          ],
          [
            -47.7788059,
            -21.1976644
          ],
          [
            -47.7787813,
            -21.1976026
          ],
          [
            -47.7787851,
            -21.1975628
          ],
          [
            -47.7788125,
            -21.1975298
          ],
          [
            -47.7788884,
            -21.1974786
          ]
        ]
      },
      "id": "way/388252096"
    },
    {
      "type": "Feature",
      "properties": {
        "@id": "way/445326035",
        "highway": "service"
      },
      "geometry": {
        "type": "LineString",
        "coordinates": [
          [
            -47.7799177,
            -21.1986492
          ],
          [
            -47.7802704,
            -21.1986383
          ],
          [
            -47.7806421,
            -21.198629
          ],
          [
            -47.7806769,
            -21.198614
          ],
          [
            -47.7806944,
            -21.1985827
          ]
        ]
      },
      "id": "way/445326035"
    },
    {
      "type": "Feature",
      "properties": {
        "@id": "way/445326036",
        "highway": "service"
      },
      "geometry": {
        "type": "LineString",
        "coordinates": [
          [
            -47.7781086,
            -21.2016913
          ],
          [
            -47.7781436,
            -21.2016936
          ],
          [
            -47.7781865,
            -21.2016911
          ],
          [
            -47.7782241,
            -21.2016792
          ],
          [
            -47.7782616,
            -21.2016536
          ],
          [
            -47.7786023,
            -21.201291
          ],
          [
            -47.778719,
            -21.2011809
          ],
          [
            -47.7790082,
            -21.2011039
          ]
        ]
      },
      "id": "way/445326036"
    },
    {
      "type": "Feature",
      "properties": {
        "@id": "way/450341830",
        "highway": "service",
        "service": "parking_aisle"
      },
      "geometry": {
        "type": "LineString",
        "coordinates": [
          [
            -47.7785141,
            -21.2032673
          ],
          [
            -47.7785404,
            -21.2033637
          ],
          [
            -47.7786316,
            -21.20334
          ]
        ]
      },
      "id": "way/450341830"
    },
    {
      "type": "Feature",
      "properties": {
        "@id": "way/450341832",
        "highway": "service",
        "service": "parking_aisle"
      },
      "geometry": {
        "type": "LineString",
        "coordinates": [
          [
            -47.7784331,
            -21.2032818
          ],
          [
            -47.7785141,
            -21.2032673
          ],
          [
            -47.7786114,
            -21.2032499
          ]
        ]
      },
      "id": "way/450341832"
    },
    {
      "type": "Feature",
      "properties": {
        "@id": "way/460023134",
        "highway": "service"
      },
      "geometry": {
        "type": "LineString",
        "coordinates": [
          [
            -47.7804301,
            -21.2011842
          ],
          [
            -47.7804155,
            -21.2012033
          ],
          [
            -47.7803956,
            -21.2012336
          ],
          [
            -47.7802169,
            -21.201456
          ],
          [
            -47.7800065,
            -21.2016412
          ],
          [
            -47.7797353,
            -21.201869
          ],
          [
            -47.7796248,
            -21.2019839
          ],
          [
            -47.779598,
            -21.202009
          ],
          [
            -47.7794163,
            -21.2021787
          ]
        ]
      },
      "id": "way/460023134"
    },
    {
      "type": "Feature",
      "properties": {
        "@id": "way/460023135",
        "highway": "service",
        "oneway": "yes"
      },
      "geometry": {
        "type": "LineString",
        "coordinates": [
          [
            -47.7806035,
            -21.201159
          ],
          [
            -47.780528,
            -21.2011492
          ],
          [
            -47.7804949,
            -21.2011522
          ],
          [
            -47.7804623,
            -21.2011655
          ],
          [
            -47.7804301,
            -21.2011842
          ]
        ]
      },
      "id": "way/460023135"
    },
    {
      "type": "Feature",
      "properties": {
        "@id": "way/460023136",
        "highway": "service",
        "oneway": "yes"
      },
      "geometry": {
        "type": "LineString",
        "coordinates": [
          [
            -47.7804301,
            -21.2011842
          ],
          [
            -47.7805047,
            -21.2009726
          ]
        ]
      },
      "id": "way/460023136"
    },
    {
      "type": "Feature",
      "properties": {
        "@id": "way/557658294",
        "highway": "service"
      },
      "geometry": {
        "type": "LineString",
        "coordinates": [
          [
            -47.7782687,
            -21.1987995
          ],
          [
            -47.778262,
            -21.1988932
          ],
          [
            -47.7782294,
            -21.1994967
          ],
          [
            -47.7782321,
            -21.1995943
          ],
          [
            -47.7782723,
            -21.1996918
          ],
          [
            -47.7784666,
            -21.2000576
          ],
          [
            -47.7788537,
            -21.2007863
          ],
          [
            -47.7790082,
            -21.2011039
          ],
          [
            -47.7790542,
            -21.2011997
          ],
          [
            -47.7791736,
            -21.2014498
          ],
          [
            -47.7793058,
            -21.2015937
          ],
          [
            -47.7795818,
            -21.2017611
          ],
          [
            -47.7797596,
            -21.2017298
          ],
          [
            -47.7800065,
            -21.2016412
          ]
        ]
      },
      "id": "way/557658294"
    },
    {
      "type": "Feature",
      "properties": {
        "@id": "way/640938339",
        "highway": "service"
      },
      "geometry": {
        "type": "LineString",
        "coordinates": [
          [
            -47.7795818,
            -21.2017611
          ],
          [
            -47.7796274,
            -21.2018575
          ],
          [
            -47.7796248,
            -21.2019839
          ]
        ]
      },
      "id": "way/640938339"
    },
    {
      "type": "Feature",
      "properties": {
        "@id": "way/640938340",
        "highway": "service"
      },
      "geometry": {
        "type": "LineString",
        "coordinates": [
          [
            -47.7794163,
            -21.2021787
          ],
          [
            -47.779305,
            -21.2022212
          ],
          [
            -47.7791843,
            -21.2022375
          ],
          [
            -47.7790475,
            -21.20225
          ],
          [
            -47.7789107,
            -21.20229
          ],
          [
            -47.7787793,
            -21.202375
          ],
          [
            -47.7786624,
            -21.2024934
          ],
          [
            -47.778499,
            -21.2026588
          ],
          [
            -47.7783181,
            -21.2028053
          ]
        ]
      },
      "id": "way/640938340"
    },
    {
      "type": "Feature",
      "properties": {
        "@id": "way/692636970",
        "highway": "residential",
        "name": "Rua Francisco Riccioni",
        "postal_code": "14096-400"
      },
      "geometry": {
        "type": "LineString",
        "coordinates": [
          [
            -47.7765477,
            -21.2021474
          ],
          [
            -47.7772719,
            -21.2020887
          ]
        ]
      },
      "id": "way/692636970"
    },
    {
      "type": "Feature",
      "properties": {
        "@id": "way/832189247",
        "highway": "service"
      },
      "geometry": {
        "type": "LineString",
        "coordinates": [
          [
            -47.7803956,
            -21.2012336
          ],
          [
            -47.7804954,
            -21.2012775
          ],
          [
            -47.7805383,
            -21.2013187
          ],
          [
            -47.7805758,
            -21.2013775
          ],
          [
            -47.780659,
            -21.2016063
          ],
          [
            -47.7806994,
            -21.2017569
          ],
          [
            -47.7807341,
            -21.2018826
          ],
          [
            -47.7807475,
            -21.202002
          ],
          [
            -47.7807341,
            -21.2020539
          ],
          [
            -47.7807032,
            -21.2020989
          ],
          [
            -47.7805946,
            -21.2021758
          ],
          [
            -47.7805249,
            -21.2022252
          ],
          [
            -47.7799428,
            -21.2028366
          ]
        ]
      },
      "id": "way/832189247"
    },
    {
      "type": "Feature",
      "properties": {
        "@id": "way/834245437",
        "highway": "residential",
        "name": "Rua Alfredo Benzoni",
        "oneway": "yes",
        "postal_code": "14091-520"
      },
      "geometry": {
        "type": "LineString",
        "coordinates": [
          [
            -47.7792195,
            -21.1973145
          ],
          [
            -47.77929,
            -21.1974419
          ],
          [
            -47.7793339,
            -21.1975301
          ],
          [
            -47.7795381,
            -21.1979565
          ],
          [
            -47.7795848,
            -21.1980365
          ],
          [
            -47.7796499,
            -21.1981457
          ],
          [
            -47.7799177,
            -21.1986492
          ],
          [
            -47.7800185,
            -21.1988411
          ],
          [
            -47.7801202,
            -21.1990679
          ],
          [
            -47.7801415,
            -21.1991107
          ]
        ]
      },
      "id": "way/834245437"
    },
    {
      "type": "Feature",
      "properties": {
        "@id": "way/874455693",
        "highway": "service",
        "service": "parking_aisle"
      },
      "geometry": {
        "type": "LineString",
        "coordinates": [
          [
            -47.7802147,
            -21.2007429
          ],
          [
            -47.7801346,
            -21.2007666
          ],
          [
            -47.7801245,
            -21.2007761
          ],
          [
            -47.7801262,
            -21.2007918
          ],
          [
            -47.7802529,
            -21.2010344
          ],
          [
            -47.7803057,
            -21.2010944
          ],
          [
            -47.7803956,
            -21.2012336
          ]
        ]
      },
      "id": "way/874455693"
    },
    {
      "type": "Feature",
      "properties": {
        "@id": "way/874455694",
        "highway": "service",
        "service": "parking_aisle"
      },
      "geometry": {
        "type": "LineString",
        "coordinates": [
          [
            -47.7801383,
            -21.2005835
          ],
          [
            -47.7802147,
            -21.2007429
          ],
          [
            -47.7803403,
            -21.2009865
          ],
          [
            -47.7803465,
            -21.2010075
          ],
          [
            -47.780343,
            -21.2010244
          ],
          [
            -47.7803057,
            -21.2010944
          ]
        ]
      },
      "id": "way/874455694"
    },
    {
      "type": "Feature",
      "properties": {
        "@id": "way/894116561",
        "highway": "service",
        "service": "parking_aisle"
      },
      "geometry": {
        "type": "LineString",
        "coordinates": [
          [
            -47.7790412,
            -21.1984627
          ],
          [
            -47.7786436,
            -21.1985105
          ]
        ]
      },
      "id": "way/894116561"
    },
    {
      "type": "Feature",
      "properties": {
        "@id": "way/894116564",
        "highway": "service"
      },
      "geometry": {
        "type": "LineString",
        "coordinates": [
          [
            -47.7788718,
            -21.1980469
          ],
          [
            -47.7789257,
            -21.1981794
          ],
          [
            -47.7789848,
            -21.1983244
          ],
          [
            -47.7790412,
            -21.1984627
          ],
          [
            -47.7790968,
            -21.1985991
          ],
          [
            -47.7790931,
            -21.1986099
          ],
          [
            -47.7790879,
            -21.1986145
          ],
          [
            -47.7790783,
            -21.1986177
          ],
          [
            -47.7786588,
            -21.1986556
          ]
        ]
      },
      "id": "way/894116564"
    },
    {
      "type": "Feature",
      "properties": {
        "@id": "way/894116565",
        "highway": "service"
      },
      "geometry": {
        "type": "LineString",
        "coordinates": [
          [
            -47.7789869,
            -21.1980268
          ],
          [
            -47.7788718,
            -21.1980469
          ],
          [
            -47.7786177,
            -21.1980813
          ],
          [
            -47.7786076,
            -21.1980935
          ],
          [
            -47.7786039,
            -21.1981101
          ],
          [
            -47.7786036,
            -21.1981288
          ],
          [
            -47.7786121,
            -21.1982096
          ],
          [
            -47.7786282,
            -21.1983635
          ],
          [
            -47.7786436,
            -21.1985105
          ],
          [
            -47.7786588,
            -21.1986556
          ],
          [
            -47.778655,
            -21.1987581
          ]
        ]
      },
      "id": "way/894116565"
    },
    {
      "type": "Feature",
      "properties": {
        "@id": "way/894127802",
        "highway": "service",
        "service": "parking_aisle"
      },
      "geometry": {
        "type": "LineString",
        "coordinates": [
          [
            -47.7797998,
            -21.2039798
          ],
          [
            -47.7797744,
            -21.2038829
          ],
          [
            -47.7797583,
            -21.2038754
          ],
          [
            -47.7797382,
            -21.2038754
          ],
          [
            -47.7796647,
            -21.2038885
          ]
        ]
      },
      "id": "way/894127802"
    },
    {
      "type": "Feature",
      "properties": {
        "@id": "way/894127803",
        "highway": "service",
        "service": "parking_aisle"
      },
      "geometry": {
        "type": "LineString",
        "coordinates": [
          [
            -47.7796897,
            -21.2035
          ],
          [
            -47.7797549,
            -21.2037491
          ],
          [
            -47.7797549,
            -21.2037572
          ],
          [
            -47.7797482,
            -21.203766
          ],
          [
            -47.7796533,
            -21.2038026
          ],
          [
            -47.779649,
            -21.2038097
          ],
          [
            -47.779649,
            -21.2038222
          ],
          [
            -47.7796647,
            -21.2038885
          ],
          [
            -47.7796912,
            -21.2040004
          ]
        ]
      },
      "id": "way/894127803"
    },
    {
      "type": "Feature",
      "properties": {
        "@id": "way/894127804",
        "highway": "service"
      },
      "geometry": {
        "type": "LineString",
        "coordinates": [
          [
            -47.7778385,
            -21.2003013
          ],
          [
            -47.7777043,
            -21.2003703
          ]
        ]
      },
      "id": "way/894127804"
    },
    {
      "type": "Feature",
      "properties": {
        "@id": "way/894127805",
        "highway": "service"
      },
      "geometry": {
        "type": "LineString",
        "coordinates": [
          [
            -47.7778385,
            -21.2003013
          ],
          [
            -47.7783403,
            -21.2000614
          ]
        ]
      },
      "id": "way/894127805"
    },
    {
      "type": "Feature",
      "properties": {
        "@id": "way/894127806",
        "highway": "service",
        "service": "parking_aisle"
      },
      "geometry": {
        "type": "LineString",
        "coordinates": [
          [
            -47.7782113,
            -21.199829
          ],
          [
            -47.7777031,
            -21.2000668
          ]
        ]
      },
      "id": "way/894127806"
    },
    {
      "type": "Feature",
      "properties": {
        "@id": "way/894127807",
        "highway": "service",
        "service": "parking_aisle"
      },
      "geometry": {
        "type": "LineString",
        "coordinates": [
          [
            -47.77827,
            -21.1999347
          ],
          [
            -47.7777799,
            -21.2001966
          ]
        ]
      },
      "id": "way/894127807"
    },
    {
      "type": "Feature",
      "properties": {
        "@id": "way/894127808",
        "highway": "service"
      },
      "geometry": {
        "type": "LineString",
        "coordinates": [
          [
            -47.7784225,
            -21.2002094
          ],
          [
            -47.7783403,
            -21.2000614
          ],
          [
            -47.77827,
            -21.1999347
          ],
          [
            -47.7782113,
            -21.199829
          ],
          [
            -47.778149,
            -21.1997168
          ],
          [
            -47.7781342,
            -21.199708
          ],
          [
            -47.7781168,
            -21.1997105
          ],
          [
            -47.7776487,
            -21.1999106
          ],
          [
            -47.7776326,
            -21.1999256
          ],
          [
            -47.7776313,
            -21.1999456
          ],
          [
            -47.7777031,
            -21.2000668
          ],
          [
            -47.7777799,
            -21.2001966
          ],
          [
            -47.7778385,
            -21.2003013
          ]
        ]
      },
      "id": "way/894127808"
    },
    {
      "type": "Feature",
      "properties": {
        "@id": "way/894127809",
        "highway": "service"
      },
      "geometry": {
        "type": "LineString",
        "coordinates": [
          [
            -47.7784666,
            -21.2000576
          ],
          [
            -47.7784225,
            -21.2002094
          ],
          [
            -47.7784011,
            -21.2002419
          ],
          [
            -47.7782214,
            -21.200387
          ]
        ]
      },
      "id": "way/894127809"
    },
    {
      "type": "Feature",
      "properties": {
        "@id": "way/894127810",
        "highway": "service",
        "service": "parking_aisle"
      },
      "geometry": {
        "type": "LineString",
        "coordinates": [
          [
            -47.7777386,
            -21.2035053
          ],
          [
            -47.7776687,
            -21.2032303
          ]
        ]
      },
      "id": "way/894127810"
    },
    {
      "type": "Feature",
      "properties": {
        "@id": "way/894127811",
        "highway": "service",
        "service": "parking_aisle"
      },
      "geometry": {
        "type": "LineString",
        "coordinates": [
          [
            -47.7782576,
            -21.2033803
          ],
          [
            -47.7782361,
            -21.2033077
          ],
          [
            -47.7782214,
            -21.2032902
          ],
          [
            -47.7781932,
            -21.2032771
          ],
          [
            -47.7781097,
            -21.203263
          ]
        ]
      },
      "id": "way/894127811"
    },
    {
      "type": "Feature",
      "properties": {
        "@id": "way/894127812",
        "highway": "service",
        "service": "parking_aisle"
      },
      "geometry": {
        "type": "LineString",
        "coordinates": [
          [
            -47.7780803,
            -21.2031253
          ],
          [
            -47.7781097,
            -21.203263
          ],
          [
            -47.7781409,
            -21.203409
          ],
          [
            -47.7781396,
            -21.2034303
          ],
          [
            -47.7781248,
            -21.2034465
          ],
          [
            -47.777988,
            -21.2034703
          ],
          [
            -47.7779706,
            -21.2034603
          ],
          [
            -47.7779625,
            -21.203439
          ],
          [
            -47.7779046,
            -21.2031701
          ]
        ]
      },
      "id": "way/894127812"
    },
    {
      "type": "Feature",
      "properties": {
        "@id": "way/894127813",
        "highway": "service"
      },
      "geometry": {
        "type": "LineString",
        "coordinates": [
          [
            -47.7783771,
            -21.2030496
          ],
          [
            -47.7780803,
            -21.2031253
          ],
          [
            -47.7779046,
            -21.2031701
          ],
          [
            -47.7776687,
            -21.2032303
          ],
          [
            -47.7775944,
            -21.2032486
          ],
          [
            -47.7775441,
            -21.2032621
          ]
        ]
      },
      "id": "way/894127813"
    },
    {
      "type": "Feature",
      "properties": {
        "@id": "way/894132727",
        "highway": "service"
      },
      "geometry": {
        "type": "LineString",
        "coordinates": [
          [
            -47.7820328,
            -21.2026026
          ],
          [
            -47.7819429,
            -21.2023425
          ],
          [
            -47.7819389,
            -21.2023112
          ],
          [
            -47.7819496,
            -21.2022837
          ],
          [
            -47.7821146,
            -21.2022062
          ]
        ]
      },
      "id": "way/894132727"
    },
    {
      "type": "Feature",
      "properties": {
        "@id": "way/894152186",
        "highway": "service",
        "service": "parking_aisle"
      },
      "geometry": {
        "type": "LineString",
        "coordinates": [
          [
            -47.780659,
            -21.2016063
          ],
          [
            -47.780388,
            -21.2016742
          ]
        ]
      },
      "id": "way/894152186"
    },
    {
      "type": "Feature",
      "properties": {
        "@id": "way/894152187",
        "highway": "service",
        "service": "parking_aisle"
      },
      "geometry": {
        "type": "LineString",
        "coordinates": [
          [
            -47.7806994,
            -21.2017569
          ],
          [
            -47.7804454,
            -21.2018234
          ]
        ]
      },
      "id": "way/894152187"
    },
    {
      "type": "Feature",
      "properties": {
        "@id": "way/894152188",
        "highway": "service",
        "service": "parking_aisle"
      },
      "geometry": {
        "type": "LineString",
        "coordinates": [
          [
            -47.7807341,
            -21.2018826
          ],
          [
            -47.7804968,
            -21.2019448
          ]
        ]
      },
      "id": "way/894152188"
    },
    {
      "type": "Feature",
      "properties": {
        "@id": "way/949245142",
        "foot": "yes",
        "highway": "cycleway",
        "name": "Ciclovia",
        "surface": "asphalt"
      },
      "geometry": {
        "type": "LineString",
        "coordinates": [
          [
            -47.7810866,
            -21.2023395
          ],
          [
            -47.7810765,
            -21.2023808
          ],
          [
            -47.7810643,
            -21.2024332
          ],
          [
            -47.7810264,
            -21.2024897
          ],
          [
            -47.780952,
            -21.2025378
          ],
          [
            -47.780864,
            -21.2026072
          ],
          [
            -47.78077,
            -21.2027868
          ],
          [
            -47.7807563,
            -21.2028971
          ],
          [
            -47.7807541,
            -21.2029699
          ],
          [
            -47.780722,
            -21.2030249
          ],
          [
            -47.7806651,
            -21.2030559
          ]
        ]
      },
      "id": "way/949245142"
    },
    {
      "type": "Feature",
      "properties": {
        "@id": "way/949245213",
        "foot": "yes",
        "highway": "cycleway",
        "name": "Ciclovia",
        "surface": "asphalt"
      },
      "geometry": {
        "type": "LineString",
        "coordinates": [
          [
            -47.7810866,
            -21.2023395
          ],
          [
            -47.7810388,
            -21.2022248
          ],
          [
            -47.7808526,
            -21.2016418
          ],
          [
            -47.7808062,
            -21.2014741
          ],
          [
            -47.7807962,
            -21.2013872
          ],
          [
            -47.7807883,
            -21.2013191
          ],
          [
            -47.7807847,
            -21.2010986
          ],
          [
            -47.7807758,
            -21.2010439
          ],
          [
            -47.7807477,
            -21.2010109
          ],
          [
            -47.7807145,
            -21.2010015
          ],
          [
            -47.7806871,
            -21.2010018
          ],
          [
            -47.7806207,
            -21.2010062
          ],
          [
            -47.7805853,
            -21.2009973
          ],
          [
            -47.7805602,
            -21.2009536
          ],
          [
            -47.7804282,
            -21.2006614
          ],
          [
            -47.7801253,
            -21.2000993
          ],
          [
            -47.7799114,
            -21.1996836
          ],
          [
            -47.7798277,
            -21.1994968
          ],
          [
            -47.7797746,
            -21.1993782
          ]
        ]
      },
      "id": "way/949245213"
    },
    {
      "type": "Feature",
      "properties": {
        "@id": "way/949587403",
        "highway": "footway",
        "wheelchair": "no"
      },
      "geometry": {
        "type": "LineString",
        "coordinates": [
          [
            -47.7771721,
            -21.2048202
          ],
          [
            -47.7769545,
            -21.2048671
          ]
        ]
      },
      "id": "way/949587403"
    },
    {
      "type": "Feature",
      "properties": {
        "@id": "way/949587417",
        "highway": "footway",
        "surface": "grass",
        "wheelchair": "no"
      },
      "geometry": {
        "type": "LineString",
        "coordinates": [
          [
            -47.7812891,
            -21.201151
          ],
          [
            -47.781115,
            -21.2011926
          ],
          [
            -47.7810998,
            -21.2012282
          ],
          [
            -47.7809914,
            -21.2014024
          ]
        ]
      },
      "id": "way/949587417"
    },
    {
      "type": "Feature",
      "properties": {
        "@id": "way/949587418",
        "highway": "footway",
        "surface": "grass",
        "wheelchair": "no"
      },
      "geometry": {
        "type": "LineString",
        "coordinates": [
          [
            -47.7815925,
            -21.2018316
          ],
          [
            -47.7814144,
            -21.2019732
          ],
          [
            -47.7813626,
            -21.2020143
          ],
          [
            -47.7812487,
            -21.2022145
          ]
        ]
      },
      "id": "way/949587418"
    },
    {
      "type": "Feature",
      "properties": {
        "@id": "way/949587419",
        "highway": "footway",
        "surface": "grass",
        "wheelchair": "no"
      },
      "geometry": {
        "type": "LineString",
        "coordinates": [
          [
            -47.7802811,
            -21.1996045
          ],
          [
            -47.7803775,
            -21.1997726
          ],
          [
            -47.7807405,
            -21.2004058
          ],
          [
            -47.7807794,
            -21.2004737
          ],
          [
            -47.7810998,
            -21.2012282
          ],
          [
            -47.7814144,
            -21.2019732
          ],
          [
            -47.781551,
            -21.2023914
          ]
        ]
      },
      "id": "way/949587419"
    },
    {
      "type": "Feature",
      "properties": {
        "@id": "way/949587420",
        "highway": "footway",
        "surface": "grass",
        "wheelchair": "no"
      },
      "geometry": {
        "type": "LineString",
        "coordinates": [
          [
            -47.7808591,
            -21.2003846
          ],
          [
            -47.7807405,
            -21.2004058
          ]
        ]
      },
      "id": "way/949587420"
    },
    {
      "type": "Feature",
      "properties": {
        "@id": "way/949587421",
        "highway": "footway",
        "surface": "grass",
        "wheelchair": "no"
      },
      "geometry": {
        "type": "LineString",
        "coordinates": [
          [
            -47.7805289,
            -21.1997265
          ],
          [
            -47.7803775,
            -21.1997726
          ]
        ]
      },
      "id": "way/949587421"
    },
    {
      "type": "Feature",
      "properties": {
        "@id": "way/949587422",
        "highway": "footway",
        "surface": "paved",
        "wheelchair": "no"
      },
      "geometry": {
        "type": "LineString",
        "coordinates": [
          [
            -47.7809914,
            -21.2014024
          ],
          [
            -47.7807962,
            -21.2013872
          ],
          [
            -47.7807362,
            -21.2013859
          ]
        ]
      },
      "id": "way/949587422"
    },
    {
      "type": "Feature",
      "properties": {
        "@id": "way/949591353",
        "highway": "footway"
      },
      "geometry": {
        "type": "LineString",
        "coordinates": [
          [
            -47.7795628,
            -21.2031102
          ],
          [
            -47.7794685,
            -21.2030643
          ],
          [
            -47.779401,
            -21.2030315
          ],
          [
            -47.7792778,
            -21.2029716
          ],
          [
            -47.7786624,
            -21.2024934
          ]
        ]
      },
      "id": "way/949591353"
    },
    {
      "type": "Feature",
      "properties": {
        "@id": "way/949591354",
        "highway": "footway"
      },
      "geometry": {
        "type": "LineString",
        "coordinates": [
          [
            -47.779598,
            -21.202009
          ],
          [
            -47.7800669,
            -21.2024081
          ],
          [
            -47.779401,
            -21.2030315
          ]
        ]
      },
      "id": "way/949591354"
    },
    {
      "type": "Feature",
      "properties": {
        "@id": "way/949592894",
        "highway": "tertiary",
        "lanes": "1",
        "name": "Rua Major Avelino Vieira de Andrade Palma",
        "oneway": "yes"
      },
      "geometry": {
        "type": "LineString",
        "coordinates": [
          [
            -47.778049,
            -21.2038126
          ],
          [
            -47.778014,
            -21.2039736
          ]
        ]
      },
      "id": "way/949592894"
    },
    {
      "type": "Feature",
      "properties": {
        "@id": "way/949592896",
        "highway": "tertiary",
        "lanes": "1",
        "name": "Rua Major Avelino Vieira de Andrade Palma",
        "oneway": "yes"
      },
      "geometry": {
        "type": "LineString",
        "coordinates": [
          [
            -47.778014,
            -21.2039736
          ],
          [
            -47.7779031,
            -21.203851
          ]
        ]
      },
      "id": "way/949592896"
    },
    {
      "type": "Feature",
      "properties": {
        "@id": "way/972051300",
        "footway": "crossing",
        "highway": "footway"
      },
      "geometry": {
        "type": "LineString",
        "coordinates": [
          [
            -47.779703,
            -21.1993997
          ],
          [
            -47.7797746,
            -21.1993782
          ],
          [
            -47.7799099,
            -21.1993371
          ],
          [
            -47.7800093,
            -21.1992927
          ]
        ]
      },
      "id": "way/972051300"
    },
    {
      "type": "Feature",
      "properties": {
        "@id": "way/972051301",
        "footway": "crossing",
        "highway": "footway"
      },
      "geometry": {
        "type": "LineString",
        "coordinates": [
          [
            -47.7799449,
            -21.1991529
          ],
          [
            -47.7798413,
            -21.1991941
          ],
          [
            -47.7796385,
            -21.1992655
          ]
        ]
      },
      "id": "way/972051301"
    },
    {
      "type": "Feature",
      "properties": {
        "@id": "way/972383166",
        "footway": "crossing",
        "highway": "footway"
      },
      "geometry": {
        "type": "LineString",
        "coordinates": [
          [
            -47.7795628,
            -21.2031102
          ],
          [
            -47.779617,
            -21.2032527
          ],
          [
            -47.7796682,
            -21.2034176
          ]
        ]
      },
      "id": "way/972383166"
    },
    {
      "type": "Feature",
      "properties": {
        "@id": "way/974944762",
        "highway": "service"
      },
      "geometry": {
        "type": "LineString",
        "coordinates": [
          [
            -47.7805383,
            -21.2013187
          ],
          [
            -47.7804147,
            -21.2014373
          ],
          [
            -47.7803658,
            -21.2015448
          ],
          [
            -47.780388,
            -21.2016742
          ],
          [
            -47.7804454,
            -21.2018234
          ],
          [
            -47.7804968,
            -21.2019448
          ],
          [
            -47.7805946,
            -21.2021758
          ]
        ]
      },
      "id": "way/974944762"
    },
    {
      "type": "Feature",
      "properties": {
        "@id": "way/974949597",
        "highway": "service"
      },
      "geometry": {
        "type": "LineString",
        "coordinates": [
          [
            -47.7806474,
            -21.1982226
          ],
          [
            -47.7806602,
            -21.1983445
          ],
          [
            -47.7806944,
            -21.1985827
          ]
        ]
      },
      "id": "way/974949597"
    },
    {
      "type": "Feature",
      "properties": {
        "@id": "way/974949598",
        "highway": "service"
      },
      "geometry": {
        "type": "LineString",
        "coordinates": [
          [
            -47.7802704,
            -21.1986383
          ],
          [
            -47.7802793,
            -21.1984052
          ],
          [
            -47.7803001,
            -21.1983802
          ],
          [
            -47.7803262,
            -21.1983689
          ],
          [
            -47.7804476,
            -21.198357
          ],
          [
            -47.7806602,
            -21.1983445
          ]
        ]
      },
      "id": "way/974949598"
    },
    {
      "type": "Feature",
      "properties": {
        "@id": "way/1273994965",
        "bicycle": "permissive",
        "highway": "footway",
        "surface": "dirt"
      },
      "geometry": {
        "type": "LineString",
        "coordinates": [
          [
            -47.7807881,
            -21.2047454
          ],
          [
            -47.7810652,
            -21.2046832
          ],
          [
            -47.7813383,
            -21.204579
          ],
          [
            -47.7819335,
            -21.2044775
          ]
        ]
      },
      "id": "way/1273994965"
    },
    {
      "type": "Feature",
      "properties": {
        "@id": "way/1273994966",
        "highway": "cycleway",
        "incline": "down",
        "name": "Down Hill",
        "oneway": "yes",
        "smoothness": "horrible",
        "surface": "dirt"
      },
      "geometry": {
        "type": "LineString",
        "coordinates": [
          [
            -47.7810937,
            -21.2036637
          ],
          [
            -47.7813938,
            -21.2038329
          ],
          [
            -47.7815393,
            -21.2039719
          ],
          [
            -47.7820717,
            -21.2043362
          ],
          [
            -47.7822349,
            -21.2044779
          ],
          [
            -47.7822455,
            -21.2045174
          ],
          [
            -47.7822718,
            -21.2046066
          ],
          [
            -47.7823507,
            -21.2047445
          ],
          [
            -47.7826771,
            -21.2048855
          ],
          [
            -47.7829445,
            -21.2049522
          ],
          [
            -47.7829735,
            -21.2050094
          ],
          [
            -47.7829377,
            -21.2050951
          ],
          [
            -47.7829675,
            -21.2051407
          ],
          [
            -47.783102,
            -21.2051994
          ],
          [
            -47.7831889,
            -21.2053408
          ],
          [
            -47.7832178,
            -21.2055218
          ],
          [
            -47.7831946,
            -21.2056033
          ],
          [
            -47.7831735,
            -21.2056774
          ],
          [
            -47.7832484,
            -21.2059134
          ],
          [
            -47.7832792,
            -21.2060181
          ],
          [
            -47.7833273,
            -21.206181
          ],
          [
            -47.783399,
            -21.2063185
          ],
          [
            -47.7834685,
            -21.2065098
          ],
          [
            -47.7835449,
            -21.2065811
          ],
          [
            -47.7837446,
            -21.2066592
          ],
          [
            -47.7838376,
            -21.2066801
          ],
          [
            -47.7838506,
            -21.2067534
          ],
          [
            -47.7837643,
            -21.2069395
          ],
          [
            -47.7837682,
            -21.2069645
          ],
          [
            -47.7837766,
            -21.2070085
          ],
          [
            -47.7840502,
            -21.2073256
          ]
        ]
      },
      "id": "way/1273994966"
    },
    {
      "type": "Feature",
      "properties": {
        "@id": "way/1273994968",
        "highway": "cycleway",
        "incline": "down",
        "name": "Down Hill",
        "oneway": "yes",
        "smoothness": "horrible",
        "surface": "dirt"
      },
      "geometry": {
        "type": "LineString",
        "coordinates": [
          [
            -47.7815393,
            -21.2039719
          ],
          [
            -47.7816784,
            -21.2041444
          ],
          [
            -47.7817624,
            -21.2043106
          ],
          [
            -47.7818525,
            -21.2044042
          ],
          [
            -47.7819335,
            -21.2044775
          ],
          [
            -47.7820964,
            -21.2044997
          ],
          [
            -47.7822455,
            -21.2045174
          ]
        ]
      },
      "id": "way/1273994968"
    },
    {
      "type": "Feature",
      "properties": {
        "@id": "way/1359207246",
        "highway": "residential",
        "oneway": "yes"
      },
      "geometry": {
        "type": "LineString",
        "coordinates": [
          [
            -47.7800683,
            -21.1994097
          ],
          [
            -47.7799586,
            -21.1994495
          ],
          [
            -47.7798716,
            -21.1994805
          ],
          [
            -47.7798277,
            -21.1994968
          ],
          [
            -47.7797972,
            -21.1995086
          ],
          [
            -47.7797656,
            -21.1995217
          ]
        ]
      },
      "id": "way/1359207246"
    },
    {
      "type": "Feature",
      "properties": {
        "@id": "way/1359207248",
        "highway": "residential",
        "oneway": "yes"
      },
      "geometry": {
        "type": "LineString",
        "coordinates": [
          [
            -47.7801415,
            -21.1991107
          ],
          [
            -47.7801673,
            -21.1991698
          ],
          [
            -47.7801888,
            -21.1992273
          ],
          [
            -47.7801995,
            -21.1992879
          ],
          [
            -47.7801898,
            -21.199347
          ],
          [
            -47.7801526,
            -21.1993736
          ],
          [
            -47.7801103,
            -21.199393
          ],
          [
            -47.7800683,
            -21.1994097
          ]
        ]
      },
      "id": "way/1359207248"
    },
    {
      "type": "Feature",
      "properties": {
        "@id": "way/1530486949",
        "highway": "service",
        "service": "parking_aisle"
      },
      "geometry": {
        "type": "LineString",
        "coordinates": [
          [
            -47.7796682,
            -21.2034176
          ],
          [
            -47.7796897,
            -21.2035
          ]
        ]
      },
      "id": "way/1530486949"
    }
  ]
}