{
  "type": "FeatureCollection",
  "features": [
    {
      "type": "Feature",
      "geometry": {
        "type": "LineString",
        "coordinates": [
          [
            -47.77908,
            -21.201302
          ],
          [
            -47.778854,
            -21.201547
          ],
          [
            -47.778629,
            -21.201792
          ]
        ]
      },
      "properties": {}
    },
    {
      "type": "Feature",
      "geometry": {
        "type": "LineString",
        "coordinates": [
          [
            -47.779144,
            -21.201462
          ],
          [
            -47.778879,
            -21.201732
          ],
          [
            -47.779093,
            -21.201952
          ],
          [
            -47.778903,
            -21.202277
          ]
        ]
      },
      "properties": {}
    },
    {
      "type": "Feature",
      "geometry": {
        "type": "LineString",
        "coordinates": [
          [
            -47.778787,
            -21.201627
          ],
          [
            -47.778876,
            -21.201735
          ],
          [
            -47.779332,
            -21.2022
          ]
        ]
      },
      "properties": {}
    },
    {
      "type": "Feature",
      "geometry": {
        "type": "LineString",
        "coordinates": [
          [
            -47.779026,
            -21.201077
          ],
          [
            -47.779353,
            -21.200977
          ],
          [
            -47.779318,
            -21.200903
          ],
          [
            -47.779431,
            -21.200867
          ],
          [
            -47.779568,
            -21.200812
          ],
          [
            -47.779474,
            -21.200563
          ]
        ]
      },
      "properties": {}
    },
    {
      "type": "Feature",
      "geometry": {
        "type": "LineString",
        "coordinates": [
          [
            -47.778879,
            -21.20078
          ],
          [
            -47.779018,
            -21.200837
          ],
          [
            -47.779477,
            -21.200577
          ]
        ]
      },
      "properties": {}
    },
    {
      "type": "Feature",
      "geometry": {
        "type": "LineString",
        "coordinates": [
          [
            -47.779021,
            -21.200832
          ],
          [
            -47.778621,
            -21.199989
          ],
          [
            -47.779125,
            -21.199814
          ],
          [
            -47.779479,
            -21.200572
          ]
        ]
      },
      "properties": {}
    },
    {
      "type": "Feature",
      "geometry": {
        "type": "LineString",
        "coordinates": [
          [
            -47.778734,
            -21.200505
          ],
          [
            -47.778841,
            -21.200452
          ],
          [
            -47.77931,
            -21.200237
          ]
        ]
      },
      "properties": {}
    },
    {
      "type": "Feature",
      "geometry": {
        "type": "LineString",
        "coordinates": [
          [
            -47.778423,
            -21.199934
          ],
          [
            -47.778624,
            -21.199984
          ]
        ]
      },
      "properties": {}
    },
    {
      "type": "Feature",
      "geometry": {
        "type": "LineString",
        "coordinates": [
          [
            -47.779552,
            -21.20309
          ],
          [
            -47.779482,
            -21.202958
          ],
          [
            -47.779651,
            -21.202825
          ],
          [
            -47.779503,
            -21.20272
          ],
          [
            -47.779211,
            -21.20248
          ],
          [
            -47.779195,
            -21.202242
          ],
          [
            -47.779329,
            -21.2022
          ]
        ]
      },
      "properties": {}
    },
    {
      "type": "Feature",
      "geometry": {
        "type": "LineString",
        "coordinates": [
          [
            -47.779198,
            -21.20224
          ],
          [
            -47.778903,
            -21.20228
          ]
        ]
      },
      "properties": {}
    },
    {
      "type": "Feature",
      "geometry": {
        "type": "LineString",
        "coordinates": [
          [
            -47.779412,
            -21.202645
          ],
          [
            -47.779453,
            -21.202618
          ],
          [
            -47.779211,
            -21.202443
          ]
        ]
      },
      "properties": {}
    },
    {
      "type": "Feature",
      "geometry": {
        "type": "LineString",
        "coordinates": [
          [
            -47.778905,
            -21.20228
          ],
          [
            -47.778723,
            -21.202418
          ],
          [
            -47.778608,
            -21.202302
          ],
          [
            -47.778683,
            -21.20223
          ],
          [
            -47.778632,
            -21.202157
          ],
          [
            -47.778983,
            -21.201847
          ]
        ]
      },
      "properties": {}
    },
    {
      "type": "Feature",
      "geometry": {
        "type": "LineString",
        "coordinates": [
          [
            -47.778642,
            -21.20215
          ],
          [
            -47.778533,
            -21.201997
          ],
          [
            -47.778592,
            -21.201932
          ],
          [
            -47.778672,
            -21.201845
          ],
          [
            -47.778632,
            -21.201795
          ]
        ]
      },
      "properties": {}
    },
    {
      "type": "Feature",
      "geometry": {
        "type": "LineString",
        "coordinates": [
          [
            -47.778881,
            -21.201735
          ],
          [
            -47.778704,
            -21.201712
          ]
        ]
      },
      "properties": {}
    },
    {
      "type": "Feature",
      "geometry": {
        "type": "LineString",
        "coordinates": [
          [
            -47.780576,
            -21.201762
          ],
          [
            -47.780366,
            -21.201545
          ],
          [
            -47.780217,
            -21.201456
          ]
        ]
      },
      "properties": {}
    },
    {
      "type": "Feature",
      "geometry": {
        "type": "LineString",
        "coordinates": [
          [
            -47.780067,
            -21.202408
          ],
          [
            -47.779943,
            -21.202302
          ],
          [
            -47.779836,
            -21.202215
          ],
          [
            -47.779764,
            -21.202147
          ],
          [
            -47.779849,
            -21.202067
          ]
        ]
      },
      "properties": {}
    }
  ]
}
